CCSDS_OMM_VERS,COMMENT,CREATION_DATE,ORIGINATOR,OBJECT_NAME,OBJECT_ID,CENTER_NAME,REF_FRAME,TIME_SYSTEM,MEAN_ELEMENT_THEORY,EPOCH,MEAN_MOTION,ECCENTRICITY,INCLINATION,RA_OF_ASC_NODE,ARG_OF_PERICENTER,MEAN_ANOMALY,EPHEMERIS_TYPE,CLASSIFICATION_TYPE,NORAD_CAT_ID,ELEMENT_SET_NO,REV_AT_EPOCH,BSTAR,MEAN_MOTION_DOT,MEAN_MOTION_DDOT,SEMIMAJOR_AXIS,PERIOD,APOAPSIS,PERIAPSIS,OBJECT_TYPE,RCS_SIZE,COUNTRY_CODE,LAUNCH_DATE,SITE,DECAY_DATE,FILE,GP_ID,TLE_LINE0,TLE_LINE1,TLE_LINE2
"2.0","GENERATED VIA SPACE-TRACK.ORG API","2020-08-15T16:44:43","18 SPCS","CZ-4 DEB","1999-057SK","EARTH","TEME","UTC","SGP4","2020-08-15T12:31:44.325120","14.46914009","0.01160470","98.7025","244.7160","9.5413","144.3196","0","U","35331","999","34794","0.00012144000000","0.00000427","0.0000000000000","7113.882","99.522","818.302","653.193","DEBRIS","SMALL","PRC","1999-10-14","TSC","","2802508","159427080","0 CZ-4 DEB","1 35331U 99057SK  20228.52204080 +.00000427 +00000-0 +12144-3 0  9998","2 35331 098.7025 244.7160 0116047 009.5413 144.3196 14.46914009347946"
"2.0","GENERATED VIA SPACE-TRACK.ORG API","2020-08-14T17:19:28","18 SPCS","ORBCOMM FM 30","1999-065A","EARTH","TEME","UTC","SGP4","2020-08-14T10:35:06.364032","14.32900783","0.00048180","45.0328","135.0239","214.2027","145.8509","0","U","25980","999","8067","0.00005117600000","0.00000000","0.0000000000000","7160.188","100.495","785.502","778.603","PAYLOAD","MEDIUM","ORB","1999-12-04","AFETR","","2801898","159388738","0 ORBCOMM FM 30","1 25980U 99065A   20227.44104588 +.00000000 +00000-0 +51176-4 0  9994","2 25980 045.0328 135.0239 0004818 214.2027 145.8509 14.32900783080670"
"2.0","GENERATED VIA SPACE-TRACK.ORG API","2020-08-14T14:26:09","18 SPCS","CZ-4 DEB","1999-057SK","EARTH","TEME","UTC","SGP4","2020-08-14T07:39:48.765024","14.46912868","0.01161470","98.7025","243.4798","13.1574","359.4574","0","U","35331","999","92554","0.00012102000000","0.00000425","0.0000000000000","7113.886","99.522","818.376","653.125","DEBRIS","SMALL","PRC","1999-10-14","TSC","","2801761","159377216","0 CZ-4 DEB","1 35331U 99057SK  20227.31931441  .00000425  00000-0  12102-3 0  9994","2 35331  98.7025 243.4798 0116147  13.1574 359.4574 14.46912868925547"
"2.0","GENERATED VIA SPACE-TRACK.ORG API","2020-08-14T06:46:09","18 SPCS","ORBCOMM FM 30","1999-065A","EARTH","TEME","UTC","SGP4","2020-08-14T03:53:30.704352","14.32900731","0.00047990","45.0327","136.3345","212.9257","147.1291","0","U","25980","999","8116","0.00005278400000","0.00000005","0.0000000000000","7160.188","100.495","785.489","778.617","PAYLOAD","MEDIUM","ORB","1999-12-04","AFETR","","2801580","159373063","0 ORBCOMM FM 30","1 25980U 99065A   20227.16216093  .00000005  00000-0  52784-4 0  9999","2 25980  45.0327 136.3345 0004799 212.9257 147.1291 14.32900731 81160"
"2.0","GENERATED VIA SPACE-TRACK.ORG API","2020-08-14T04:26:27","18 SPCS","ORBCOMM FM 30","1999-065A","EARTH","TEME","UTC","SGP4","2020-08-13T21:11:55.038624","14.32900654","0.00047900","45.0327","137.6450","211.7523","148.3036","0","U","25980","999","8059","0.00005158400000","0.00000001","0.0000000000000","7160.188","100.495","785.483","778.623","PAYLOAD","MEDIUM","ORB","1999-12-04","AFETR","","2801525","159359692","0 ORBCOMM FM 30","1 25980U 99065A   20226.88327591 +.00000001 +00000-0 +51584-4 0  9996","2 25980 045.0327 137.6450 0004790 211.7523 148.3036 14.32900654080595"
"2.0","GENERATED VIA SPACE-TRACK.ORG API","2020-08-14T04:26:27","18 SPCS","CZ-4 DEB","1999-057SK","EARTH","TEME","UTC","SGP4","2020-08-13T06:58:03.153792","14.46911862","0.01162320","98.7024","242.4221","16.2502","39.5199","0","U","35331","999","34762","0.00011853000000","0.00000416","0.0000000000000","7113.889","99.522","818.440","653.068","DEBRIS","SMALL","PRC","1999-10-14","TSC","","2801525","159365533","0 CZ-4 DEB","1 35331U 99057SK  20226.29031428 +.00000416 +00000-0 +11853-3 0  9998","2 35331 098.7024 242.4221 0116232 016.2502 039.5199 14.46911862347625"
"2.0","GENERATED VIA SPACE-TRACK.ORG API","2020-08-13T16:35:23","18 SPCS","ORBCOMM FM 30","1999-065A","EARTH","TEME","UTC","SGP4","2020-08-13T04:27:55.881216","14.32900436","0.00047410","45.0327","140.9216","208.7722","151.2864","0","U","25980","999","8049","0.00004996800000","-0.00000003","0.0000000000000","7160.189","100.495","785.448","778.659","PAYLOAD","MEDIUM","ORB","1999-12-04","AFETR","","2801032","159309653","0 ORBCOMM FM 30","1 25980U 99065A   20226.18606344 -.00000003 +00000-0 +49968-4 0  9991","2 25980 045.0327 140.9216 0004741 208.7722 151.2864 14.32900436080494"
"2.0","GENERATED VIA SPACE-TRACK.ORG API","2020-08-12T22:26:09","18 SPCS","ORBCOMM FM 30","1999-065A","EARTH","TEME","UTC","SGP4","2020-08-12T20:05:56.297760","14.32900302","0.00047180","45.0326","142.5597","207.2759","152.7840","0","U","25980","999","8097","0.00004773800000","-0.00000009","0.0000000000000","7160.189","100.495","785.432","778.676","PAYLOAD","MEDIUM","ORB","1999-12-04","AFETR","","2800615","159272309","0 ORBCOMM FM 30","1 25980U 99065A   20225.83745715 -.00000009  00000-0  47738-4 0  9997","2 25980  45.0326 142.5597 0004718 207.2759 152.7840 14.32900302 80976"
"2.0","GENERATED VIA SPACE-TRACK.ORG API","2020-08-12T21:01:05","18 SPCS","ORBCOMM FM 30","1999-065A","EARTH","TEME","UTC","SGP4","2020-08-12T11:43:56.715168","14.32900172","0.00046930","45.0327","144.1981","205.7679","154.2934","0","U","25980","999","8039","0.00004567800000","-0.00000015","0.0000000000000","7160.190","100.495","785.415","778.694","PAYLOAD","MEDIUM","ORB","1999-12-04","AFETR","","2800566","159258137","0 ORBCOMM FM 30","1 25980U 99065A   20225.48885087 -.00000015 +00000-0 +45678-4 0  9993","2 25980 045.0327 144.1981 0004693 205.7679 154.2934 14.32900172080390"
"2.0","GENERATED VIA SPACE-TRACK.ORG API","2020-08-12T14:26:10","18 SPCS","CZ-4 DEB","1999-057SK","EARTH","TEME","UTC","SGP4","2020-08-12T06:05:26.153952","14.46910923","0.01163230","98.7024","241.3567","19.3636","40.3174","0","U","35331","999","92524","0.00011949000000","0.00000419","0.0000000000000","7113.892","99.522","818.508","653.006","DEBRIS","SMALL","PRC","1999-10-14","TSC","","2800374","159246033","0 CZ-4 DEB","1 35331U 99057SK  20225.25377493  .00000419  00000-0  11949-3 0  9997","2 35331  98.7024 241.3567 0116323  19.3636  40.3174 14.46910923925249"
"2.0","GENERATED VIA SPACE-TRACK.ORG API","2020-08-12T03:51:49","18 SPCS","ORBCOMM FM 30","1999-065A","EARTH","TEME","UTC","SGP4","2020-08-11T20:40:21.457344","14.32899969","0.00046550","45.0326","147.1468","203.0640","156.9998","0","U","25980","999","8030","0.00004647100000","-0.00000013","0.0000000000000","7160.190","100.495","785.388","778.722","PAYLOAD","MEDIUM","ORB","1999-12-04","AFETR","","2800090","159225388","0 ORBCOMM FM 30","1 25980U 99065A   20224.86135946 -.00000013 +00000-0 +46471-4 0  9996","2 25980 045.0326 147.1468 0004655 203.0640 156.9998 14.32899969080300"
"2.0","GENERATED VIA SPACE-TRACK.ORG API","2020-08-11T14:26:09","18 SPCS","ORBCOMM FM 30","1999-065A","EARTH","TEME","UTC","SGP4","2020-08-11T12:18:21.865248","14.32899848","0.00046360","45.0326","148.7851","201.5761","158.4891","0","U","25980","999","8078","0.00004637500000","-0.00000013","0.0000000000000","7160.191","100.495","785.375","778.736","PAYLOAD","MEDIUM","ORB","1999-12-04","AFETR","","2799784","159172837","0 ORBCOMM FM 30","1 25980U 99065A   20224.51275307 -.00000013  00000-0  46375-4 0  9997","2 25980  45.0326 148.7851 0004636 201.5761 158.4891 14.32899848 80786"
"2.0","GENERATED VIA SPACE-TRACK.ORG API","2020-08-12T03:51:49","18 SPCS","CZ-4 DEB","1999-057SK","EARTH","TEME","UTC","SGP4","2020-08-11T06:49:59.153952","14.46909996","0.01164020","98.7024","240.3607","22.2713","32.5994","0","U","35331","999","34733","0.00011899000000","0.00000418","0.0000000000000","7113.895","99.522","818.567","652.953","DEBRIS","SMALL","PRC","1999-10-14","TSC","","2800090","159233160","0 CZ-4 DEB","1 35331U 99057SK  20224.28471243 +.00000418 +00000-0 +11899-3 0  9990","2 35331 098.7024 240.3607 0116402 022.2713 032.5994 14.46909996347339"
"2.0","GENERATED VIA SPACE-TRACK.ORG API","2020-08-11T18:16:01","18 SPCS","ORBCOMM FM 30","1999-065A","EARTH","TEME","UTC","SGP4","2020-08-11T03:56:22.275744","14.32899723","0.00046120","45.0325","150.4233","200.0320","160.0346","0","U","25980","999","8020","0.00004747500000","-0.00000010","0.0000000000000","7160.191","100.495","785.358","778.754","PAYLOAD","MEDIUM","ORB","1999-12-04","AFETR","","2799939","159183123","0 ORBCOMM FM 30","1 25980U 99065A   20224.16414671 -.00000010 +00000-0 +47475-4 0  9996","2 25980 045.0325 150.4233 0004612 200.0320 160.0346 14.32899723080201"
"2.0","GENERATED VIA SPACE-TRACK.ORG API","2020-08-11T04:17:32","18 SPCS","ORBCOMM FM 30","1999-065A","EARTH","TEME","UTC","SGP4","2020-08-10T21:14:46.594464","14.32899633","0.00046010","45.0325","151.7338","198.8838","161.1839","0","U","25980","999","8016","0.00004763900000","-0.00000009","0.0000000000000","7160.191","100.495","785.351","778.762","PAYLOAD","MEDIUM","ORB","1999-12-04","AFETR","","2799520","159154956","0 ORBCOMM FM 30","1 25980U 99065A   20223.88526151 -.00000009 +00000-0 +47639-4 0  9991","2 25980 045.0325 151.7338 0004601 198.8838 161.1839 14.32899633080161"
"2.0","GENERATED VIA SPACE-TRACK.ORG API","2020-08-11T04:17:32","18 SPCS","CZ-4 DEB","1999-057SK","EARTH","TEME","UTC","SGP4","2020-08-10T21:10:18.155712","14.46909664","0.01164350","98.7023","239.9469","23.4788","95.7305","0","U","35331","999","34727","0.00012118000000","0.00000426","0.0000000000000","7113.896","99.522","818.592","652.931","DEBRIS","SMALL","PRC","1999-10-14","TSC","","2799520","159161932","0 CZ-4 DEB","1 35331U 99057SK  20223.88215458 +.00000426 +00000-0 +12118-3 0  9993","2 35331 098.7023 239.9469 0116435 023.4788 095.7305 14.46909664347271"
